{
  "type": "FeatureCollection",
  "features": [
    {
      "type": "Feature",
      "properties": {
        "norad_id": 34765,
        "name": "IRIDIUM 33 DEB",
        "group": "iridium-33-debris",
        "lat": 59.97044509358476,
        "lon": -156.12094770913293,
        "alt_km": 747.5956550036581,
        "timestamp": "2025-12-18T14:52:08.409838+00:00",
        "meta_object_name": "IRIDIUM 33 DEB",
        "meta_object_id": "1997-051LJ",
        "meta_epoch": "2025-12-17T14:00:27.393696",
        "meta_mean_motion": 14.4047717,
        "meta_eccentricity": 0.00159633,
        "meta_inclination": 86.3388,
        "meta_ra_of_asc_node": 30.6831,
        "meta_arg_of_pericenter": 194.8895,
        "meta_mean_anomaly": 316.624,
        "meta_ephemeris_type": 0,
        "meta_classification_type": "U",
        "meta_norad_cat_id": 34765,
        "meta_element_set_no": 999,
        "meta_rev_at_epoch": 87683,
        "meta_bstar": 0.0003220723,
        "meta_mean_motion_dot": 1.045e-05,
        "meta_mean_motion_ddot": 0,
        "tle_line1": "1 34765U 97051LJ  25351.58365039  .00001045  00000+0  32207-3 0  9998",
        "tle_line2": "2 34765  86.3388  30.6831 0015963 194.8895 316.6240 14.40477170876831"
      },
      "geometry": {
        "type": "Point",
        "coordinates": [
          -156.12094770913293,
          59.97044509358476
        ]
      }
    },
    {
      "type": "Feature",
      "properties": {
        "norad_id": 34833,
        "name": "IRIDIUM 33 DEB",
        "group": "iridium-33-debris",
        "lat": 62.10311144472123,
        "lon": -138.38192645883743,
        "alt_km": 699.514367037842,
        "timestamp": "2025-12-18T14:52:08.409848+00:00",
        "meta_object_name": "IRIDIUM 33 DEB",
        "meta_object_id": "1997-051MH",
        "meta_epoch": "2025-12-17T22:03:42.683328",
        "meta_mean_motion": 14.5240857,
        "meta_eccentricity": 0.00217118,
        "meta_inclination": 86.3934,
        "meta_ra_of_asc_node": 48.7621,
        "meta_arg_of_pericenter": 82.9468,
        "meta_mean_anomaly": 335.2565,
        "meta_ephemeris_type": 0,
        "meta_classification_type": "U",
        "meta_norad_cat_id": 34833,
        "meta_element_set_no": 999,
        "meta_rev_at_epoch": 87790,
        "meta_bstar": 0.00056162231,
        "meta_mean_motion_dot": 2.315e-05,
        "meta_mean_motion_ddot": 0,
        "tle_line1": "1 34833U 97051MH  25351.91924402  .00002315  00000+0  56162-3 0  9993",
        "tle_line2": "2 34833  86.3934  48.7621 0021711  82.9468 335.2565 14.52408570877909"
      },
      "geometry": {
        "type": "Point",
        "coordinates": [
          -138.38192645883743,
          62.10311144472123
        ]
      }
    },
    {
      "type": "Feature",
      "properties": {
        "norad_id": 34870,
        "name": "IRIDIUM 33 DEB",
        "group": "iridium-33-debris",
        "lat": -58.88004645008716,
        "lon": 137.52685854493677,
        "alt_km": 644.9281827051436,
        "timestamp": "2025-12-18T14:52:08.409858+00:00",
        "meta_object_name": "IRIDIUM 33 DEB",
        "meta_object_id": "1997-051MQ",
        "meta_epoch": "2025-12-17T15:48:12.189024",
        "meta_mean_motion": 14.76525212,
        "meta_eccentricity": 0.00169592,
        "meta_inclination": 86.3102,
        "meta_ra_of_asc_node": 311.8309,
        "meta_arg_of_pericenter": 164.6796,
        "meta_mean_anomaly": 8.9227,
        "meta_ephemeris_type": 0,
        "meta_classification_type": "U",
        "meta_norad_cat_id": 34870,
        "meta_element_set_no": 999,
        "meta_rev_at_epoch": 88983,
        "meta_bstar": 0.0011120343,
        "meta_mean_motion_dot": 7.793e-05,
        "meta_mean_motion_ddot": 0,
        "tle_line1": "1 34870U 97051MQ  25351.65847441  .00007793  00000+0  11120-2 0  9991",
        "tle_line2": "2 34870  86.3102 311.8309 0016959 164.6796   8.9227 14.76525212889837"
      },
      "geometry": {
        "type": "Point",
        "coordinates": [
          137.52685854493677,
          -58.88004645008716
        ]
      }
    },
    {
      "type": "Feature",
      "properties": {
        "norad_id": 34896,
        "name": "IRIDIUM 33 DEB",
        "group": "iridium-33-debris",
        "lat": -44.828437869649555,
        "lon": 147.7070505518329,
        "alt_km": 664.6611870647084,
        "timestamp": "2025-12-18T14:52:08.409868+00:00",
        "meta_object_name": "IRIDIUM 33 DEB",
        "meta_object_id": "1997-051MY",
        "meta_epoch": "2025-12-17T17:20:43.717344",
        "meta_mean_motion": 14.6632638,
        "meta_eccentricity": 0.00248916,
        "meta_inclination": 86.3286,
        "meta_ra_of_asc_node": 324.4498,
        "meta_arg_of_pericenter": 196.3048,
        "meta_mean_anomaly": 337.3904,
        "meta_ephemeris_type": 0,
        "meta_classification_type": "U",
        "meta_norad_cat_id": 34896,
        "meta_element_set_no": 999,
        "meta_rev_at_epoch": 87692,
        "meta_bstar": 0.00069874419,
        "meta_mean_motion_dot": 3.895e-05,
        "meta_mean_motion_ddot": 0,
        "tle_line1": "1 34896U 97051MY  25351.72272821  .00003895  00000+0  69874-3 0  9990",
        "tle_line2": "2 34896  86.3286 324.4498 0024891 196.3048 337.3904 14.66326380876924"
      },
      "geometry": {
        "type": "Point",
        "coordinates": [
          147.7070505518329,
          -44.828437869649555
        ]
      }
    },
    {
      "type": "Feature",
      "properties": {
        "norad_id": 34926,
        "name": "IRIDIUM 33 DEB",
        "group": "iridium-33-debris",
        "lat": 63.08906298659934,
        "lon": 13.207747565459918,
        "alt_km": 750.5280023819714,
        "timestamp": "2025-12-18T14:52:08.409878+00:00",
        "meta_object_name": "IRIDIUM 33 DEB",
        "meta_object_id": "1997-051NF",
        "meta_epoch": "2025-12-18T01:37:12.305856",
        "meta_mean_motion": 14.54654321,
        "meta_eccentricity": 0.00746791,
        "meta_inclination": 86.1318,
        "meta_ra_of_asc_node": 5.8033,
        "meta_arg_of_pericenter": 274.3347,
        "meta_mean_anomaly": 139.5908,
        "meta_ephemeris_type": 0,
        "meta_classification_type": "U",
        "meta_norad_cat_id": 34926,
        "meta_element_set_no": 999,
        "meta_rev_at_epoch": 86534,
        "meta_bstar": 0.0042851773,
        "meta_mean_motion_dot": 0.00019062,
        "meta_mean_motion_ddot": 0,
        "tle_line1": "1 34926U 97051NF  25352.06750354  .00019062  00000+0  42852-2 0  9993",
        "tle_line2": "2 34926  86.1318   5.8033 0074679 274.3347 139.5908 14.54654321865341"
      },
      "geometry": {
        "type": "Point",
        "coordinates": [
          13.207747565459918,
          63.08906298659934
        ]
      }
    },
    {
      "type": "Feature",
      "properties": {
        "norad_id": 34985,
        "name": "IRIDIUM 33 DEB",
        "group": "iridium-33-debris",
        "lat": -76.34322896524299,
        "lon": 39.225079351227336,
        "alt_km": 757.3695970414228,
        "timestamp": "2025-12-18T14:52:08.409888+00:00",
        "meta_object_name": "IRIDIUM 33 DEB",
        "meta_object_id": "1997-051NR",
        "meta_epoch": "2025-12-18T03:42:15.992064",
        "meta_mean_motion": 14.42032375,
        "meta_eccentricity": 0.00213063,
        "meta_inclination": 86.3697,
        "meta_ra_of_asc_node": 54.5701,
        "meta_arg_of_pericenter": 201.5738,
        "meta_mean_anomaly": 187.9746,
        "meta_ephemeris_type": 0,
        "meta_classification_type": "U",
        "meta_norad_cat_id": 34985,
        "meta_element_set_no": 999,
        "meta_rev_at_epoch": 87253,
        "meta_bstar": 0.00049263148,
        "meta_mean_motion_dot": 1.64e-05,
        "meta_mean_motion_ddot": 0,
        "tle_line1": "1 34985U 97051NR  25352.15435176  .00001640  00000+0  49263-3 0  9997",
        "tle_line2": "2 34985  86.3697  54.5701 0021306 201.5738 187.9746 14.42032375872538"
      },
      "geometry": {
        "type": "Point",
        "coordinates": [
          39.225079351227336,
          -76.34322896524299
        ]
      }
    },
    {
      "type": "Feature",
      "properties": {
        "norad_id": 35051,
        "name": "IRIDIUM 33 DEB",
        "group": "iridium-33-debris",
        "lat": -26.34841669187884,
        "lon": 4.475046504887852,
        "alt_km": 740.5539870217472,
        "timestamp": "2025-12-18T14:52:08.409899+00:00",
        "meta_object_name": "IRIDIUM 33 DEB",
        "meta_object_id": "1997-051NX",
        "meta_epoch": "2025-12-17T07:28:14.191104",
        "meta_mean_motion": 14.47618427,
        "meta_eccentricity": 0.00105426,
        "meta_inclination": 86.3241,
        "meta_ra_of_asc_node": 6.8697,
        "meta_arg_of_pericenter": 78.4974,
        "meta_mean_anomaly": 281.7412,
        "meta_ephemeris_type": 0,
        "meta_classification_type": "U",
        "meta_norad_cat_id": 35051,
        "meta_element_set_no": 999,
        "meta_rev_at_epoch": 87062,
        "meta_bstar": 0.00048726324,
        "meta_mean_motion_dot": 1.815e-05,
        "meta_mean_motion_ddot": 0,
        "tle_line1": "1 35051U 97051NX  25351.31127536  .00001815  00000+0  48726-3 0  9994",
        "tle_line2": "2 35051  86.3241   6.8697 0010542  78.4974 281.7412 14.47618427870629"
      },
      "geometry": {
        "type": "Point",
        "coordinates": [
          4.475046504887852,
          -26.34841669187884
        ]
      }
    }
  ]
}